[{"OBJECT_NAME":"STARLINK-5183","OBJECT_ID":"2022-136AK","EPOCH":"2026-03-09T21:34:47.996832","MEAN_MOTION":15.08829669,"ECCENTRICITY":0.00012704,"INCLINATION":53.2183,"RA_OF_ASC_NODE":333.3242,"ARG_OF_PERICENTER":110.4319,"MEAN_ANOMALY":249.681,"EPHEMERIS_TYPE":0,"CLASSIFICATION_TYPE":"U","NORAD_CAT_ID":54084,"ELEMENT_SET_NO":999,"REV_AT_EPOCH":18701,"BSTAR":9.3605358e-5,"MEAN_MOTION_DOT":1.202e-5,"MEAN_MOTION_DDOT":0},{"OBJECT_NAME":"CZ-4B R\/B","OBJECT_ID":"2008-053C","EPOCH":"2026-03-09T16:52:55.405920","MEAN_MOTION":15.20774751,"ECCENTRICITY":0.00860777,"INCLINATION":97.7895,"RA_OF_ASC_NODE":133.277,"ARG_OF_PERICENTER":241.1085,"MEAN_ANOMALY":118.1494,"EPHEMERIS_TYPE":0,"CLASSIFICATION_TYPE":"U","NORAD_CAT_ID":33410,"ELEMENT_SET_NO":999,"REV_AT_EPOCH":94950,"BSTAR":0.00029822835,"MEAN_MOTION_DOT":7.181e-5,"MEAN_MOTION_DDOT":0}]
